{
    "links": {
        "self": "http://www.neowsapp.com/rest/v1/neo/3366807?api_key=iIulBulltgU6a56xZRHN4H3l9WmuAYTsLGpBGhQ2"
    },
    "id": "3366807",
    "neo_reference_id": "3366807",
    "name": "(2007 BD7)",
    "designation": "2007 BD7",
    "nasa_jpl_url": "http://ssd.jpl.nasa.gov/sbdb.cgi?sstr=3366807",
    "absolute_magnitude_h": 21.1,
    "estimated_diameter": {
        "kilometers": {
            "estimated_diameter_min": 0.160160338,
            "estimated_diameter_max": 0.358129403
        },
        "meters": {
            "estimated_diameter_min": 160.1603379786,
            "estimated_diameter_max": 358.1294030194
        },
        "miles": {
            "estimated_diameter_min": 0.0995189894,
            "estimated_diameter_max": 0.2225312253
        },
        "feet": {
            "estimated_diameter_min": 525.4604432536,
            "estimated_diameter_max": 1174.9652706022
        }
    },
    "is_potentially_hazardous_asteroid": true,
    "close_approach_data": [
        {
            "close_approach_date": "1999-07-23",
            "close_approach_date_full": "1999-Jul-23 05:55",
            "epoch_date_close_approach": 932709300000,
            "relative_velocity": {
                "kilometers_per_second": "26.0512324669",
                "kilometers_per_hour": "93784.4368808245",
                "miles_per_hour": "58274.001905199"
            },
            "miss_distance": {
                "astronomical": "0.4437670193",
                "lunar": "172.6253705077",
                "kilometers": "66386600.863528891",
                "miles": "41250720.9552490558"
            },
            "orbiting_body": "Earth"
        },
        {
            "close_approach_date": "2007-02-08",
            "close_approach_date_full": "2007-Feb-08 14:45",
            "epoch_date_close_approach": 1170945900000,
            "relative_velocity": {
                "kilometers_per_second": "12.7101866206",
                "kilometers_per_hour": "45756.6718341398",
                "miles_per_hour": "28431.4164516076"
            },
            "miss_distance": {
                "astronomical": "0.0437093985",
                "lunar": "17.0029560165",
                "kilometers": "6538832.914581195",
                "miles": "4063042.367342691"
            },
            "orbiting_body": "Earth"
        },
        {
            "close_approach_date": "2009-01-19",
            "close_approach_date_full": "2009-Jan-19 15:32",
            "epoch_date_close_approach": 1232379120000,
            "relative_velocity": {
                "kilometers_per_second": "21.770065409",
                "kilometers_per_hour": "78372.2354724835",
                "miles_per_hour": "48697.459313444"
            },
            "miss_distance": {
                "astronomical": "0.2848462903",
                "lunar": "110.8052069267",
                "kilometers": "42612398.306281661",
                "miles": "26478116.5009464818"
            },
            "orbiting_body": "Earth"
        },
        {
            "close_approach_date": "2165-07-15",
            "close_approach_date_full": "2165-Jul-15 02:12",
            "epoch_date_close_approach": 6170523120000,
            "relative_velocity": {
                "kilometers_per_second": "20.1785316572",
                "kilometers_per_hour": "72642.7139660615",
                "miles_per_hour": "45137.3574640786"
            },
            "miss_distance": {
                "astronomical": "0.2478536686",
                "lunar": "96.4150770854",
                "kilometers": "37078380.894245882",
                "miles": "23039437.5347698916"
            },
            "orbiting_body": "Earth"
        },
        {
            "close_approach_date": "2167-06-25",
            "close_approach_date_full": "2167-Jun-25 02:59",
            "epoch_date_close_approach": 6231869940000,
            "relative_velocity": {
                "kilometers_per_second": "11.6086579703",
                "kilometers_per_hour": "41791.1686929353",
                "miles_per_hour": "25967.4070136741"
            },
            "miss_distance": {
                "astronomical": "0.0954842502",
                "lunar": "37.1433733278",
                "kilometers": "14284240.448467074",
                "miles": "8875815.4376466612"
            },
            "orbiting_body": "Earth"
        }
    ],
    "orbital_data": {
        "orbit_id": "22",
        "orbit_determination_date": "2017-04-06 09:07:11",
        "first_observation_date": "2007-01-23",
        "last_observation_date": "2007-02-06",
        "data_arc_in_days": 14,
        "observations_used": 183,
        "orbit_uncertainty": "8",
        "minimum_orbit_intersection": ".0379223",
        "jupiter_tisserand_invariant": "4.279",
        "epoch_osculation": "2454128.5",
        "eccentricity": ".4979841596501932",
        "semi_major_axis": "1.561530932603412",
        "inclination": "4.843713852050041",
        "ascending_node_longitude": "343.7958896651725",
        "orbital_period": "712.7288101730059",
        "perihelion_distance": ".7839132633631192",
        "perihelion_argument": "219.7008866044472",
        "aphelion_distance": "2.339148601843704",
        "perihelion_time": "2454183.987778348436",
        "mean_anomaly": "331.9730703735855",
        "mean_motion": ".5051009512476626",
        "equinox": "J2000",
        "orbit_class": {
            "orbit_class_type": "APO",
            "orbit_class_description": "Near-Earth asteroid orbits which cross the Earth’s orbit similar to that of 1862 Apollo",
            "orbit_class_range": "a (semi-major axis) > 1.0 AU; q (perihelion) < 1.017 AU"
        }
    },
    "is_sentry_object": false
}